IRIDIUM 116             
1 43072U 17083C   23224.03615359  .00000122  00000+0  36622-4 0  9997
2 43072  86.3955  36.7138 0002032  86.3413 273.8015 14.34217305295084
IRIDIUM 130             
1 43073U 17083D   23224.00442475  .00000127  00000+0  38442-4 0  9999
2 43073  86.3964  36.9014 0002121  92.4756 267.6682 14.34216450295022
IRIDIUM 151             
1 43074U 17083E   23225.02559318  .00000119  00000+0  35426-4 0  9998
2 43074  86.3958  36.3341 0001913  88.7217 271.4198 14.34218025295194
IRIDIUM 134             
1 43075U 17083F   23224.71481183  .00000130  00000+0  39205-4 0  9990
2 43075  86.3960  36.4579 0002247  92.5620 267.5833 14.34218573295116
IRIDIUM 137             
1 43076U 17083G   23224.72749176  .00000125  00000+0  37413-4 0  9994
2 43076  86.3961  36.5251 0002094  85.5116 274.6319 14.34218212295183
IRIDIUM 141             
1 43077U 17083H   23224.02347241  .00000126  00000+0  38058-4 0  9992
2 43077  86.3955  36.7085 0001962  93.8295 266.3125 14.34217744295088
IRIDIUM 153             
1 43078U 17083J   23225.09193611  .00000110  00000+0  32285-4 0  9990
2 43078  86.4005   4.7213 0002221 102.6759 257.4685 14.34217924296349
IRIDIUM 131             
1 43079U 17083K   23224.77823660  .00000125  00000+0  37494-4 0  9992
2 43079  86.3962  36.5095 0002159  95.0563 265.0879 14.34218857295121
